[{"OBJECT_NAME":"GAOFEN-9 05","OBJECT_ID":"2020-058A","EPOCH":"2026-03-10T00:01:50.876256","MEAN_MOTION":15.30293976,"ECCENTRICITY":0.0010522,"INCLINATION":97.2228,"RA_OF_ASC_NODE":111.963,"ARG_OF_PERICENTER":91.0204,"MEAN_ANOMALY":269.2242,"EPHEMERIS_TYPE":0,"CLASSIFICATION_TYPE":"U","NORAD_CAT_ID":46232,"ELEMENT_SET_NO":999,"REV_AT_EPOCH":30843,"BSTAR":0.00025120304,"MEAN_MOTION_DOT":7.299e-5,"MEAN_MOTION_DDOT":0},{"OBJECT_NAME":"STARLINK-32205","OBJECT_ID":"2024-131M","EPOCH":"2026-03-09T22:28:52.928544","MEAN_MOTION":15.30185056,"ECCENTRICITY":0.0001352,"INCLINATION":53.1612,"RA_OF_ASC_NODE":51.4919,"ARG_OF_PERICENTER":92.8209,"MEAN_ANOMALY":267.2946,"EPHEMERIS_TYPE":0,"CLASSIFICATION_TYPE":"U","NORAD_CAT_ID":60266,"ELEMENT_SET_NO":999,"REV_AT_EPOCH":9175,"BSTAR":8.460043e-6,"MEAN_MOTION_DOT":-1.09e-6,"MEAN_MOTION_DDOT":0}]
